[{"OBJECT_NAME":"STARLINK-37150","OBJECT_ID":"2026-057X","EPOCH":"2026-04-17T21:10:01.962624","MEAN_MOTION":15.75175807,"ECCENTRICITY":0.00019321,"INCLINATION":97.287,"RA_OF_ASC_NODE":232.2594,"ARG_OF_PERICENTER":65.6679,"MEAN_ANOMALY":294.4788,"EPHEMERIS_TYPE":0,"CLASSIFICATION_TYPE":"U","NORAD_CAT_ID":68315,"ELEMENT_SET_NO":999,"REV_AT_EPOCH":445,"BSTAR":0.0014458969,"MEAN_MOTION_DOT":0.00221079,"MEAN_MOTION_DDOT":0},{"OBJECT_NAME":"STARLINK-37154","OBJECT_ID":"2026-057Y","EPOCH":"2026-04-17T19:26:21.376032","MEAN_MOTION":15.75276575,"ECCENTRICITY":4.997e-5,"INCLINATION":97.2869,"RA_OF_ASC_NODE":232.2033,"ARG_OF_PERICENTER":326.935,"MEAN_ANOMALY":33.1883,"EPHEMERIS_TYPE":0,"CLASSIFICATION_TYPE":"U","NORAD_CAT_ID":68316,"ELEMENT_SET_NO":999,"REV_AT_EPOCH":444,"BSTAR":0.0010691693,"MEAN_MOTION_DOT":0.00163033,"MEAN_MOTION_DDOT":0},{"OBJECT_NAME":"STARLINK-37139","OBJECT_ID":"2026-057Z","EPOCH":"2026-04-17T18:58:01.062912","MEAN_MOTION":15.80836524,"ECCENTRICITY":0.0003788,"INCLINATION":97.2854,"RA_OF_ASC_NODE":232.2295,"ARG_OF_PERICENTER":296.8106,"MEAN_ANOMALY":63.2774,"EPHEMERIS_TYPE":0,"CLASSIFICATION_TYPE":"U","NORAD_CAT_ID":68317,"ELEMENT_SET_NO":999,"REV_AT_EPOCH":444,"BSTAR":0.001211324,"MEAN_MOTION_DOT":0.00238621,"MEAN_MOTION_DDOT":0},{"OBJECT_NAME":"STARLINK-37113","OBJECT_ID":"2026-057AA","EPOCH":"2026-04-17T21:00:53.290656","MEAN_MOTION":15.75291849,"ECCENTRICITY":0.00021865,"INCLINATION":97.2867,"RA_OF_ASC_NODE":232.2677,"ARG_OF_PERICENTER":76.1445,"MEAN_ANOMALY":284.0063,"EPHEMERIS_TYPE":0,"CLASSIFICATION_TYPE":"U","NORAD_CAT_ID":68318,"ELEMENT_SET_NO":999,"REV_AT_EPOCH":445,"BSTAR":0.0010601572,"MEAN_MOTION_DOT":0.00161748,"MEAN_MOTION_DDOT":0},{"OBJECT_NAME":"PROGRESS-MS 33","OBJECT_ID":"2026-058A","EPOCH":"2026-04-19T04:00:59.187744","MEAN_MOTION":15.48825421,"ECCENTRICITY":0.00066223,"INCLINATION":51.633,"RA_OF_ASC_NODE":232.2024,"ARG_OF_PERICENTER":324.6287,"MEAN_ANOMALY":35.4262,"EPHEMERIS_TYPE":0,"CLASSIFICATION_TYPE":"U","NORAD_CAT_ID":68319,"ELEMENT_SET_NO":999,"REV_AT_EPOCH":316,"BSTAR":0.00015944184,"MEAN_MOTION_DOT":8.294e-5,"MEAN_MOTION_DDOT":0},{"OBJECT_NAME":"STARLINK-36987","OBJECT_ID":"2026-059A","EPOCH":"2026-04-19T06:00:02.000160","MEAN_MOTION":15.55850661,"ECCENTRICITY":0.00011177,"INCLINATION":53.1595,"RA_OF_ASC_NODE":160.1636,"ARG_OF_PERICENTER":103.8456,"MEAN_ANOMALY":177.1959,"EPHEMERIS_TYPE":0,"CLASSIFICATION_TYPE":"U","NORAD_CAT_ID":68321,"ELEMENT_SET_NO":999,"REV_AT_EPOCH":556,"BSTAR":-0.031160599,"MEAN_MOTION_DOT":-0.01932773,"MEAN_MOTION_DDOT":0},{"OBJECT_NAME":"STARLINK-37088","OBJECT_ID":"2026-059B","EPOCH":"2026-04-19T06:00:02.000160","MEAN_MOTION":15.54303955,"ECCENTRICITY":0.00013461,"INCLINATION":53.1591,"RA_OF_ASC_NODE":160.2145,"ARG_OF_PERICENTER":88.9435,"MEAN_ANOMALY":166.6446,"EPHEMERIS_TYPE":0,"CLASSIFICATION_TYPE":"U","NORAD_CAT_ID":68322,"ELEMENT_SET_NO":999,"REV_AT_EPOCH":556,"BSTAR":-0.032390863,"MEAN_MOTION_DOT":-0.01901293,"MEAN_MOTION_DDOT":0},{"OBJECT_NAME":"STARLINK-36983","OBJECT_ID":"2026-059C","EPOCH":"2026-04-19T06:00:02.000160","MEAN_MOTION":15.49270191,"ECCENTRICITY":9.323e-5,"INCLINATION":53.1591,"RA_OF_ASC_NODE":160.5153,"ARG_OF_PERICENTER":40.2424,"MEAN_ANOMALY":67.2919,"EPHEMERIS_TYPE":0,"CLASSIFICATION_TYPE":"U","NORAD_CAT_ID":68323,"ELEMENT_SET_NO":999,"REV_AT_EPOCH":556,"BSTAR":0.00047046587,"MEAN_MOTION_DOT":0.00025768,"MEAN_MOTION_DDOT":0},{"OBJECT_NAME":"STARLINK-37164","OBJECT_ID":"2026-059D","EPOCH":"2026-04-19T06:00:02.000160","MEAN_MOTION":15.5240052,"ECCENTRICITY":0.00014797,"INCLINATION":53.1596,"RA_OF_ASC_NODE":160.296,"ARG_OF_PERICENTER":68.4435,"MEAN_ANOMALY":147.0791,"EPHEMERIS_TYPE":0,"CLASSIFICATION_TYPE":"U","NORAD_CAT_ID":68324,"ELEMENT_SET_NO":999,"REV_AT_EPOCH":556,"BSTAR":-0.033348409,"MEAN_MOTION_DOT":-0.01834344,"MEAN_MOTION_DDOT":0},{"OBJECT_NAME":"STARLINK-36309","OBJECT_ID":"2026-059E","EPOCH":"2026-04-19T06:00:02.000160","MEAN_MOTION":15.55624388,"ECCENTRICITY":0.00011676,"INCLINATION":53.1595,"RA_OF_ASC_NODE":160.1384,"ARG_OF_PERICENTER":95.1778,"MEAN_ANOMALY":198.0812,"EPHEMERIS_TYPE":0,"CLASSIFICATION_TYPE":"U","NORAD_CAT_ID":68325,"ELEMENT_SET_NO":999,"REV_AT_EPOCH":556,"BSTAR":-0.031412537,"MEAN_MOTION_DOT":-0.01932129,"MEAN_MOTION_DDOT":0},{"OBJECT_NAME":"STARLINK-37206","OBJECT_ID":"2026-059F","EPOCH":"2026-04-19T06:00:02.000160","MEAN_MOTION":15.54660895,"ECCENTRICITY":0.00012454,"INCLINATION":53.1592,"RA_OF_ASC_NODE":160.1721,"ARG_OF_PERICENTER":99.6557,"MEAN_ANOMALY":176.6929,"EPHEMERIS_TYPE":0,"CLASSIFICATION_TYPE":"U","NORAD_CAT_ID":68326,"ELEMENT_SET_NO":999,"REV_AT_EPOCH":556,"BSTAR":-0.032187448,"MEAN_MOTION_DOT":-0.01912818,"MEAN_MOTION_DDOT":0},{"OBJECT_NAME":"STARLINK-37199","OBJECT_ID":"2026-059G","EPOCH":"2026-04-19T06:00:02.000160","MEAN_MOTION":15.49278391,"ECCENTRICITY":0.00010179,"INCLINATION":53.1588,"RA_OF_ASC_NODE":161.0977,"ARG_OF_PERICENTER":62.6923,"MEAN_ANOMALY":117.026,"EPHEMERIS_TYPE":0,"CLASSIFICATION_TYPE":"U","NORAD_CAT_ID":68327,"ELEMENT_SET_NO":999,"REV_AT_EPOCH":556,"BSTAR":0.0005644169,"MEAN_MOTION_DOT":0.00031033,"MEAN_MOTION_DDOT":0},{"OBJECT_NAME":"STARLINK-36245","OBJECT_ID":"2026-059H","EPOCH":"2026-04-19T06:00:02.000160","MEAN_MOTION":15.52432869,"ECCENTRICITY":0.00015209,"INCLINATION":53.1602,"RA_OF_ASC_NODE":160.2504,"ARG_OF_PERICENTER":90.6762,"MEAN_ANOMALY":146.8449,"EPHEMERIS_TYPE":0,"CLASSIFICATION_TYPE":"U","NORAD_CAT_ID":68328,"ELEMENT_SET_NO":999,"REV_AT_EPOCH":556,"BSTAR":-0.033459566,"MEAN_MOTION_DOT":-0.01841695,"MEAN_MOTION_DDOT":0},{"OBJECT_NAME":"STARLINK-37204","OBJECT_ID":"2026-059J","EPOCH":"2026-04-19T06:00:02.000160","MEAN_MOTION":15.49299186,"ECCENTRICITY":9.931e-5,"INCLINATION":53.159,"RA_OF_ASC_NODE":160.5124,"ARG_OF_PERICENTER":74.8126,"MEAN_ANOMALY":33.6373,"EPHEMERIS_TYPE":0,"CLASSIFICATION_TYPE":"U","NORAD_CAT_ID":68329,"ELEMENT_SET_NO":999,"REV_AT_EPOCH":556,"BSTAR":0.00025647242,"MEAN_MOTION_DOT":0.00013836,"MEAN_MOTION_DDOT":0},{"OBJECT_NAME":"STARLINK-37001","OBJECT_ID":"2026-059K","EPOCH":"2026-04-19T00:00:02.000160","MEAN_MOTION":15.49284813,"ECCENTRICITY":0.00011063,"INCLINATION":53.1576,"RA_OF_ASC_NODE":162.4112,"ARG_OF_PERICENTER":89.8594,"MEAN_ANOMALY":75.9341,"EPHEMERIS_TYPE":0,"CLASSIFICATION_TYPE":"U","NORAD_CAT_ID":68330,"ELEMENT_SET_NO":999,"REV_AT_EPOCH":552,"BSTAR":0.001724256,"MEAN_MOTION_DOT":0.00096558,"MEAN_MOTION_DDOT":0},{"OBJECT_NAME":"STARLINK-36932","OBJECT_ID":"2026-059L","EPOCH":"2026-04-19T06:00:02.000160","MEAN_MOTION":15.54173892,"ECCENTRICITY":0.00012323,"INCLINATION":53.1594,"RA_OF_ASC_NODE":160.1506,"ARG_OF_PERICENTER":95.2731,"MEAN_ANOMALY":191.437,"EPHEMERIS_TYPE":0,"CLASSIFICATION_TYPE":"U","NORAD_CAT_ID":68331,"ELEMENT_SET_NO":999,"REV_AT_EPOCH":556,"BSTAR":-0.032589146,"MEAN_MOTION_DOT":-0.01903403,"MEAN_MOTION_DDOT":0},{"OBJECT_NAME":"STARLINK-37205","OBJECT_ID":"2026-059M","EPOCH":"2026-04-19T06:00:02.000160","MEAN_MOTION":15.49516515,"ECCENTRICITY":0.00017762,"INCLINATION":53.1589,"RA_OF_ASC_NODE":160.4831,"ARG_OF_PERICENTER":57.6417,"MEAN_ANOMALY":64.8639,"EPHEMERIS_TYPE":0,"CLASSIFICATION_TYPE":"U","NORAD_CAT_ID":68332,"ELEMENT_SET_NO":999,"REV_AT_EPOCH":556,"BSTAR":-0.011141577,"MEAN_MOTION_DOT":-0.0058047,"MEAN_MOTION_DDOT":0},{"OBJECT_NAME":"STARLINK-37180","OBJECT_ID":"2026-059N","EPOCH":"2026-04-18T00:00:04.000320","MEAN_MOTION":15.49263587,"ECCENTRICITY":9.854e-5,"INCLINATION":53.1592,"RA_OF_ASC_NODE":167.3041,"ARG_OF_PERICENTER":64.1526,"MEAN_ANOMALY":225.9322,"EPHEMERIS_TYPE":0,"CLASSIFICATION_TYPE":"U","NORAD_CAT_ID":68333,"ELEMENT_SET_NO":999,"REV_AT_EPOCH":536,"BSTAR":0.001288202,"MEAN_MOTION_DOT":0.00071742,"MEAN_MOTION_DDOT":0},{"OBJECT_NAME":"STARLINK-37191","OBJECT_ID":"2026-059P","EPOCH":"2026-04-19T06:00:02.000160","MEAN_MOTION":15.49301119,"ECCENTRICITY":0.00012626,"INCLINATION":53.1589,"RA_OF_ASC_NODE":160.4761,"ARG_OF_PERICENTER":86.8216,"MEAN_ANOMALY":39.0737,"EPHEMERIS_TYPE":0,"CLASSIFICATION_TYPE":"U","NORAD_CAT_ID":68334,"ELEMENT_SET_NO":999,"REV_AT_EPOCH":556,"BSTAR":0.00030067865,"MEAN_MOTION_DOT":0.00016304,"MEAN_MOTION_DDOT":0},{"OBJECT_NAME":"STARLINK-37217","OBJECT_ID":"2026-059Q","EPOCH":"2026-04-19T06:00:02.000160","MEAN_MOTION":15.49294196,"ECCENTRICITY":0.00014444,"INCLINATION":53.1589,"RA_OF_ASC_NODE":160.5176,"ARG_OF_PERICENTER":74.4542,"MEAN_ANOMALY":30.7483,"EPHEMERIS_TYPE":0,"CLASSIFICATION_TYPE":"U","NORAD_CAT_ID":68335,"ELEMENT_SET_NO":999,"REV_AT_EPOCH":556,"BSTAR":0.00037283894,"MEAN_MOTION_DOT":0.00020331,"MEAN_MOTION_DDOT":0},{"OBJECT_NAME":"STARLINK-37143","OBJECT_ID":"2026-059R","EPOCH":"2026-04-19T06:00:02.000160","MEAN_MOTION":15.50240651,"ECCENTRICITY":0.00013517,"INCLINATION":53.1592,"RA_OF_ASC_NODE":160.2884,"ARG_OF_PERICENTER":66.433,"MEAN_ANOMALY":151.812,"EPHEMERIS_TYPE":0,"CLASSIFICATION_TYPE":"U","NORAD_CAT_ID":68336,"ELEMENT_SET_NO":999,"REV_AT_EPOCH":556,"BSTAR":-0.02284545,"MEAN_MOTION_DOT":-0.011971,"MEAN_MOTION_DDOT":0},{"OBJECT_NAME":"STARLINK-36237","OBJECT_ID":"2026-059S","EPOCH":"2026-04-19T06:00:02.000160","MEAN_MOTION":15.55140835,"ECCENTRICITY":9.47e-5,"INCLINATION":53.1589,"RA_OF_ASC_NODE":160.0537,"ARG_OF_PERICENTER":90.8379,"MEAN_ANOMALY":243.0434,"EPHEMERIS_TYPE":0,"CLASSIFICATION_TYPE":"U","NORAD_CAT_ID":68337,"ELEMENT_SET_NO":999,"REV_AT_EPOCH":556,"BSTAR":-0.031963112,"MEAN_MOTION_DOT":-0.01930913,"MEAN_MOTION_DDOT":0},{"OBJECT_NAME":"STARLINK-36254","OBJECT_ID":"2026-059T","EPOCH":"2026-04-19T06:00:02.000160","MEAN_MOTION":15.5574168,"ECCENTRICITY":8.284e-5,"INCLINATION":53.1592,"RA_OF_ASC_NODE":160.0096,"ARG_OF_PERICENTER":99.1955,"MEAN_ANOMALY":256.484,"EPHEMERIS_TYPE":0,"CLASSIFICATION_TYPE":"U","NORAD_CAT_ID":68338,"ELEMENT_SET_NO":999,"REV_AT_EPOCH":556,"BSTAR":-0.03095685,"MEAN_MOTION_DOT":-0.019146,"MEAN_MOTION_DDOT":0}]
